OSCAR 31 [?]            
1 19420U 88074B   23117.20069219  .00000124  00000+0  19633-3 0  9997
2 19420  90.0165  18.3463 0096429 100.0680  53.4199 13.42357895697908
