[{"OBJECT_NAME":"OSCAR 31 [?]","OBJECT_ID":"1988-074B","EPOCH":"2023-04-27T04:48:59.805216","MEAN_MOTION":13.42357895,"ECCENTRICITY":0.0096429,"INCLINATION":90.0165,"RA_OF_ASC_NODE":18.3463,"ARG_OF_PERICENTER":100.068,"MEAN_ANOMALY":53.4199,"EPHEMERIS_TYPE":0,"CLASSIFICATION_TYPE":"U","NORAD_CAT_ID":19420,"ELEMENT_SET_NO":999,"REV_AT_EPOCH":69790,"BSTAR":0.00019633,"MEAN_MOTION_DOT":1.24e-6,"MEAN_MOTION_DDOT":0}]
